[{"OBJECT_NAME":"TEN-KOH","OBJECT_ID":"2018-084G","EPOCH":"2026-03-09T23:23:52.653408","MEAN_MOTION":15.02465351,"ECCENTRICITY":0.0011972,"INCLINATION":98.0798,"RA_OF_ASC_NODE":257.1735,"ARG_OF_PERICENTER":91.8355,"MEAN_ANOMALY":268.424,"EPHEMERIS_TYPE":0,"CLASSIFICATION_TYPE":"U","NORAD_CAT_ID":43677,"ELEMENT_SET_NO":999,"REV_AT_EPOCH":40126,"BSTAR":0.00025918134,"MEAN_MOTION_DOT":3.377e-5,"MEAN_MOTION_DDOT":0},{"OBJECT_NAME":"STARLINK-34904","OBJECT_ID":"2025-184B","EPOCH":"2026-03-09T17:20:54.889728","MEAN_MOTION":15.05634337,"ECCENTRICITY":0.00013054,"INCLINATION":97.602,"RA_OF_ASC_NODE":122.6597,"ARG_OF_PERICENTER":115.1435,"MEAN_ANOMALY":244.9928,"EPHEMERIS_TYPE":0,"CLASSIFICATION_TYPE":"U","NORAD_CAT_ID":65274,"ELEMENT_SET_NO":999,"REV_AT_EPOCH":3130,"BSTAR":0.0003313828,"MEAN_MOTION_DOT":4.722e-5,"MEAN_MOTION_DDOT":0}]
